{"fetched_at":"2026-03-30T06:02:59Z","count":15439,"tles":[{"name":"STARLINK-36498","line1":"1 67318U 26002P   26087.69139079  .00027265  00000+0  99582-3 0  9999","line2":"2 67318  43.0009 218.0668 0001836 278.3710  81.6933 15.27606984 14047","category":"Starlink"}]}