{
  "norad_id": 67318,
  "name": "STARLINK-36498",
  "history": [
    {
      "epoch": "2026-03-28T16:35:36.164256Z",
      "apogee_km": 484.22799635820684,
      "perigee_km": 481.7085984929936,
      "latitude_deg": -2.9934221435455745e-05,
      "longitude_deg": 143.05788197390976,
      "height_km": 482.5620688632454,
      "semi_major_axis_km": 6861.1052974256,
      "eccentricity": 0.0001836,
      "inclination_deg": 43.0009,
      "raan_deg": 218.0668,
      "arg_perigee_deg": 278.371,
      "mean_anomaly_deg": 81.6933,
      "mean_motion_rev_day": 15.27606984
    }
  ]
}